OSCAR 7 (AO-7)          
1 07530U 74089B   22319.57364300 -.00000030  00000+0  99895-4 0  9995
2 07530 101.9250 300.0204 0012399 111.5514   3.4533 12.53658558196402
PHASE 3B (AO-10)        
1 14129U 83058B   22317.35712507 -.00000283  00000+0  00000+0 0  9998
2 14129  26.6496  71.7499 6028905 122.9022 309.5147  2.05872468268475
UOSAT 2 (UO-11)         
1 14781U 84021B   22319.50858644  .00001033  00000+0  13021-3 0  9999
2 14781  97.6342 300.2076 0008259 174.1124 186.0189 14.83971914 62442
LUSAT (LO-19)           
1 20442U 90005G   22319.46927447  .00000149  00000+0  71100-4 0  9992
2 20442  98.8159 286.7900 0012852  85.8606 274.4046 14.33112901714731
EYESAT A (AO-27)        
1 22825U 93061C   22319.34910790  .00000078  00000+0  47960-4 0  9992
2 22825  98.8719 353.4694 0007964 338.8225  21.2626 14.30209958519728
ITAMSAT (IO-26)         
1 22826U 93061D   22319.54546829  .00000097  00000+0  54871-4 0  9993
2 22826  98.8663 353.5403 0008273 323.1853  36.8759 14.30560553520018
RADIO ROSTO (RS-15)     
1 23439U 94085A   22319.52483696 -.00000039  00000+0  10000-3 0  9993
2 23439  64.8146 261.2666 0167423 246.9257 111.3937 11.27573370148520
JAS-2 (FO-29)           
1 24278U 96046B   22319.57128368 -.00000017  00000+0  21408-4 0  9992
2 24278  98.5143 322.4535 0349279 251.1143 105.1829 13.53124353296047
TECHSAT 1B (GO-32)      
1 25397U 98043D   22319.45116855  .00000088  00000+0  58123-4 0  9990
2 25397  98.8381 270.4453 0002122  57.2397 302.8986 14.23787930264912
ISS (ZARYA)             
1 25544U 98067A   22319.46486606  .00010387  00000+0  18953-3 0  9994
2 25544  51.6435 307.1820 0006911  75.9727  60.4125 15.50019835368643
PCSAT (NO-44)           
1 26931U 01043C   22319.51707152  .00000118  00000+0  76602-4 0  9998
2 26931  67.0531  28.4634 0005231 265.6872  94.3632 14.30763640103015
SAUDISAT 1C (SO-50)     
1 27607U 02058C   22319.38873325  .00000766  00000+0  12461-3 0  9998
2 27607  64.5543 199.9334 0081306 265.7523  93.4285 14.76415154 70654
CUTE-1 (CO-55)          
1 27844U 03031E   22319.51469687  .00000295  00000+0  15157-3 0  9992
2 27844  98.6803 324.9399 0010345  30.3847 329.7929 14.22539825  5353
CUBESAT XI-IV (CO-57)   
1 27848U 03031J   22319.52523964  .00000246  00000+0  13063-3 0  9996
2 27848  98.6844 325.4349 0010485  43.9338 316.2672 14.22084606  5182
MOZHAYETS 4 (RS-22)     
1 27939U 03042A   22319.63366395  .00001034  00000+0  19058-3 0  9990
2 27939  98.2142 100.5331 0013938  91.6685 268.6112 14.67616309 23217
CUBESAT XI-V            
1 28895U 05043F   22319.31178215  .00001103  00000+0  21613-3 0  9999
2 28895  98.1273  88.5725 0017001  30.2082 330.0097 14.64659901909491
FALCONSAT-3             
1 30776U 07006E   22319.35974312  .00127308  00000+0  91949-3 0  9992
2 30776  35.4279 341.9338 0005801 161.8257 198.2689 15.72118145873163
CUTE-1.7+APD II (CO-65) 
1 32785U 08021C   22319.47885358  .00002154  00000+0  22725-3 0  9993
2 32785  97.6786 285.7517 0014383  92.3968 267.8897 14.90233505788979
DELFI-C3 (DO-64)        
1 32789U 08021G   22319.55318597  .00015692  00000+0  77323-3 0  9997
2 32789  97.3282 340.6694 0010381 146.9710 213.2174 15.17985630794819
SEEDS II (CO-66)        
1 32791U 08021J   22319.16824901  .00003075  00000+0  29599-3 0  9992
2 32791  97.6313 290.7946 0014173  52.1885 308.0615 14.93616003789768
YUBILEINY (RS-30)       
1 32953U 08025A   22319.52471807  .00000024  00000+0  10000-3 0  9997
2 32953  82.5005  89.9842 0018612 290.6986  69.2091 12.43115248657109
KKS-1 (KISEKI)          
1 33499U 09002H   22319.54094640  .00000975  00000+0  14838-3 0  9995
2 33499  98.1949 203.9211 0008623 183.3355 176.7798 14.76271580742532
SWISSCUBE               
1 35932U 09051B   22319.53343895  .00000814  00000+0  19151-3 0  9996
2 35932  98.5466 179.5553 0006718 310.4572  49.6039 14.57078907698092
BEESAT-1                
1 35933U 09051C   22319.55665399  .00000701  00000+0  16646-3 0  9996
2 35933  98.5399 181.0975 0005127 327.1050  32.9828 14.57068480698178
ITUPSAT1                
1 35935U 09051E   22319.32355043  .00000626  00000+0  15278-3 0  9991
2 35935  98.5501 180.8734 0007488 328.5264  31.5484 14.56161992697835
XIWANG-1 (HOPE-1)       
1 36122U 09072B   22319.51777983 -.00000035  00000+0  20392-4 0  9994
2 36122 100.2063 285.4575 0007527 359.0755   1.0344 13.16374218620689
JUGNU                   
1 37839U 11058B   22319.42537473  .00000456  00000+0  10080-3 0  9993
2 37839  19.9625 339.7279 0019007  22.2056 108.4111 14.12833171573628
SRMSAT                  
1 37841U 11058D   22319.56415628  .00000418  00000+0  84305-4 0  9998
2 37841  19.9725  61.4815 0011721 204.1344 264.6319 14.10793890572606
M-CUBED & EXP-1 PRIME   
1 37855U 11061F   22319.53821904  .00010738  00000+0  43796-3 0  9996
2 37855 101.7174 159.1600 0144587 328.7041  30.5628 15.15686120604095
STRAND-1                
1 39090U 13009E   22319.50206684  .00000237  00000+0  97370-4 0  9993
2 39090  98.3941 153.6561 0009025 174.4879 185.6408 14.35368292509087
SOMP                    
1 39134U 13015E   22319.29927512  .00025665  00000+0  76929-3 0  9993
2 39134  64.8594 285.2267 0031405 259.1139 100.6461 15.33954078529945
BEESAT-3                
1 39135U 13015F   22319.38360889  .00016540  00000+0  60258-3 0  9992
2 39135  64.8650 325.0432 0036789 262.1377  97.5577 15.27703696529565
BEESAT-2                
1 39136U 13015G   22319.40822130  .00014383  00000+0  55257-3 0  9994
2 39136  64.8741 334.1072 0024997 292.7857  67.0633 15.26373172529407
ZACUBE-1 (TSHEPISOSAT)  
1 39417U 13066B   22319.47862389  .00002261  00000+0  27731-3 0  9997
2 39417  97.6574 284.3624 0055244 269.5515  89.9369 14.83009805485500
GOMX-1                  
1 39430U 13066Q   22319.46685191  .00002620  00000+0  47148-3 0  9998
2 39430  97.7962 217.9631 0146970 288.8991  69.6262 14.60636724478337
CUBEBUG-2 (LO-74)       
1 39440U 13066AA  22319.43778903  .00002784  00000+0  37744-3 0  9992
2 39440  97.7461 270.8282 0078166   2.9019 357.2630 14.77581490482572
FUNCUBE-1 (AO-73)       
1 39444U 13066AE  22319.44723302  .00002790  00000+0  33114-3 0  9994
2 39444  97.6450 286.7659 0053869 256.4481 103.0729 14.84236231483912
UWE-3                   
1 39446U 13066AG  22319.53550302  .00002741  00000+0  35413-3 0  9994
2 39446  97.7068 277.2686 0066792 317.8897  41.7194 14.80192616482802
SPROUT                  
1 39770U 14029E   22319.29940764  .00012190  00000+0  11693-2 0  9994
2 39770  97.9545  77.4890 0007775 314.5222  45.5185 14.93237251460158
UNISAT-6                
1 40012U 14033C   22319.45042887  .00001367  00000+0  20339-3 0  9999
2 40012  97.6617 139.4151 0057708  30.9808 329.4785 14.75352513452245
DUCHIFAT-1              
1 40021U 14033M   22319.36984162  .00004681  00000+0  44340-3 0  9990
2 40021  98.0315 272.5425 0010004 262.7342  97.2740 14.94082067457223
QB50P1                  
1 40025U 14033R   22319.54201961  .00002621  00000+0  26863-3 0  9995
2 40025  97.9734 258.2641 0010247 282.7224  77.2849 14.91323601456272
NUDT-PHONESAT           
1 40900U 15049B   22319.47219777  .00056559  00000+0  11441-2 0  9995
2 40900  97.3891 339.0622 0010164  99.1473   6.9809 15.46212559397856
ZDPS 2A                 
1 40901U 15049C   22319.55719348  .00013511  00000+0  49949-3 0  9990
2 40901  97.4588 327.9389 0011225 160.5539 199.6130 15.27775891396490
ZDPS 2B                 
1 40902U 15049D   22319.51259081  .00018064  00000+0  65866-3 0  9994
2 40902  97.4671 325.8033 0011040 157.7429 325.7411 15.28166882396464
XW-2A                   
1 40903U 15049E   22319.45489336  .00044640  00000+0  51126-3 0  9999
2 40903  97.1576  18.7509 0006301 280.1069 207.9012 15.61978229402758
KAITUO 1A               
1 40904U 15049F   22319.47649208  .00008008  00000+0  37824-3 0  9995
2 40904  97.4983 320.7283 0012310 197.4204 315.6443 15.19625512395783
2015-049G               
1 40905U 15049G   22319.50758863  .00004783  00000+0  24067-3 0  9999
2 40905  97.5202 317.9778 0013642 202.6238 277.3794 15.17623967395515
XW-2C                   
1 40906U 15049H   22319.50763920  .00007809  00000+0  35597-3 0  9992
2 40906  97.4962 321.9056 0012812 183.2117 298.3164 15.20857462395865
XW-2D                   
1 40907U 15049J   22319.46203409  .00009122  00000+0  40426-3 0  9996
2 40907  97.4951 321.9921 0012205 177.5400 339.8294 15.21778457395910
LILACSAT-2              
1 40908U 15049K   22319.50099892  .00004127  00000+0  21311-3 0  9993
2 40908  97.5226 318.7278 0013803 207.1237 304.5292 15.16793169395377
XW-2E                   
1 40909U 15049L   22319.47936718  .00014580  00000+0  55558-3 0  9991
2 40909  97.4641 326.9395 0011787 152.2233   4.2550 15.26748607396420
XW-2F                   
1 40910U 15049M   22319.64603545  .00014407  00000+0  55791-3 0  9998
2 40910  97.4726 326.2788 0012795 153.9030 302.3592 15.26204586396216
XW-2B                   
1 40911U 15049N   22319.62744558  .00008890  00000+0  39566-3 0  9998
2 40911  97.4937 322.7042 0012108 178.1992 321.3489 15.21644937395824
KAITUO 1B               
1 40912U 15049P   22319.46283735  .00016306  00000+0  56601-3 0  9996
2 40912  97.4334 330.4504 0013465 120.9011  16.4194 15.29770993396803
TIANWANG 1A (TW-1A)     
1 40928U 15051D   22319.65697718  .00186841  00000+0  86916-3 0  9991
2 40928  97.0170 342.5460 0006419 147.5071 309.6705 15.82848181401920
LAPAN-A2                
1 40931U 15052B   22319.24920599  .00001208  00000+0  78663-4 0  9991
2 40931   5.9962 173.3075 0012373 144.6333 215.4655 14.76920692385679
E-ST@R-II               
1 41459U 16025D   22319.46094821  .00019650  00000+0  76891-3 0  9992
2 41459  98.1937 136.3155 0135418 115.6010 245.9232 15.17684620360367
AAUSAT 4                
1 41460U 16025E   22319.46995604  .00029924  00000+0  96336-3 0  9994
2 41460  98.1788 144.1245 0109578  85.5687 275.7630 15.26438805360919
